1 44716U 19074D   23001.51835454  .00000504  00000-0  52734-4 0  9998
2 44716  53.0541   8.3035 0001930  79.2461 280.8745 15.06392024173415
1 44716U 19074D   23002.04913070  .00004228  00000-0  30258-3 0  9991
2 44716  53.0539   5.9208 0001904  81.7854 278.3351 15.06397932173667
1 44716U 19074D   23002.31451700  .00009514  00000-0  65665-3 0  9991
2 44716  53.0538   4.7295 0001863  82.5987 277.5213 15.06405456173534
1 44716U 19074D   23002.71259789  .00005651  00000-0  39792-3 0  9998
2 44716  53.0537   2.9423 0001870  84.5346 275.5856 15.06404124173593
1 44716U 19074D   23003.24337274  .00004701  00000-0  33421-3 0  9991
2 44716  53.0538   0.5594 0001968  86.7207 273.4007 15.06405230173847
1 44716U 19074D   23003.30971960  .00003644  00000-0  26340-3 0  9991
2 44716  53.0538   0.2617 0001929  86.9962 273.1247 15.06403688173687
1 44716U 19074D   23003.70780041  .00002147  00000-0  16300-3 0  9995
2 44716  53.0538 358.4743 0001936  87.7383 272.3828 15.06401969173911
1 44716U 19074D   23004.23857153  .00002983  00000-0  21902-3 0  9995
2 44716  53.0538 356.0911 0001875  86.4047 273.7156 15.06408866173829
1 44716U 19074D   23004.70299986  .00002360  00000-0  17725-3 0  9998
2 44716  53.0533 354.0052 0001840  89.6490 270.4710 15.06404831173892
1 44716U 19074D   23005.23377402  .00002128  00000-0  16170-3 0  9992
2 44716  53.0539 351.6232 0002010  86.3536 273.7683 15.06404581174142
1 44716U 19074D   23005.43281071  .00002821  00000-0  20815-3 0  9991
2 44716  53.0534 350.7304 0002076  86.9077 273.2149 15.06409666174001
1 44716U 19074D   23006.36167488  .00001742  00000-0  13581-3 0  9992
2 44716  53.0534 346.5598 0001940  95.0941 265.0270 15.06398913174319
1 44716U 19074D   23006.75975956  .00000814  00000-0  73536-4 0  9998
2 44716  53.0538 344.7734 0001800  91.6347 268.4848 15.06392022174371
1 44716U 19074D   23006.89245552 -.00000577  00000-0 -19805-4 0  9992
2 44716  53.0535 344.1769 0001867  93.6660 266.4543 15.06387836174224
1 44716U 19074D   23007.22418840  .00001997  00000-0  15292-3 0  9992
2 44716  53.0540 342.6883 0001718  91.9561 268.1624 15.06396388174272
1 44716U 19074D   23007.82131305  .00001669  00000-0  13096-3 0  9992
2 44716  53.0539 340.0072 0001746  96.0418 264.0770 15.06392759174365
1 44716U 19074D   23008.15304781  .00002020  00000-0  15450-3 0  9997
2 44716  53.0539 338.5180 0001798  96.5375 263.5819 15.06396163174586
1 44716U 19074D   23008.41843006  .00005270  00000-0  37232-3 0  9996
2 44716  53.0540 337.3268 0001759  96.2422 263.8767 15.06408393174459
1 44716U 19074D   23008.41843006  .00005270  00000-0  37232-3 0  9996
2 44716  53.0540 337.3268 0001759  96.2422 263.8767 15.06408393174628
1 44716U 19074D   23008.61747548  .00002411  00000-0  18073-3 0  9998
2 44716  53.0559 336.4298 0002056  86.9777 273.1447 15.06399320174483
1 44716U 19074D   23008.61747548  .00002411  00000-0  18073-3 0  9998
2 44716  53.0559 336.4298 0002056  86.9777 273.1447 15.06399320174652
1 44716U 19074D   23009.34728529  .00006839  00000-0  47742-3 0  9990
2 44716  53.0543 333.1569 0001869  88.3125 271.8078 15.06414045174594
1 44716U 19074D   23009.61267613  .00000467  00000-0  50245-4 0  9996
2 44716  53.0538 331.9654 0001712  92.0663 268.0522 15.06397776174633
1 44716U 19074D   23010.14344923  .00008702  00000-0  60216-3 0  9994
2 44716  53.0538 329.5829 0001729  92.9771 267.1416 15.06411035174881
1 44716U 19074D   23010.27614166  .00014686  00000-0  10023-2 0  9995
2 44716  53.0539 328.9872 0001791  92.1114 268.0080 15.06416859174735
1 44716U 19074D   23010.60787900  .00009951  00000-0  68594-3 0  9995
2 44716  53.0539 327.4982 0001775  86.4867 273.6325 15.06404422174955
1 44716U 19074D   23010.87326747  .00015579  00000-0  10622-2 0  9993
2 44716  53.0543 326.3076 0001804  87.9341 272.1855 15.06408758174822
1 44716U 19074D   23011.13865298  .00012427  00000-0  85142-3 0  9991
2 44716  53.0541 325.1154 0001839  90.9308 269.1892 15.06410827174860
1 44716U 19074D   23012.13385389  .00007676  00000-0  53353-3 0  9999
2 44716  53.0538 320.6471 0001870  94.8884 265.2319 15.06409355175018
1 44716U 19074D   23012.13385389  .00007676  00000-0  53353-3 0  9999
2 44716  53.0538 320.6471 0001870  94.8884 265.2319 15.06409355175186
1 44716U 19074D   23012.99636452  .00005058  00000-0  35819-3 0  9992
2 44716  53.0539 316.7750 0001767 108.4592 251.6589 15.06401160175315
1 44716U 19074D   23013.52713691  .00011244  00000-0  77223-3 0  9992
2 44716  53.0536 314.3922 0001414  96.2748 263.8402 15.06415052175227
1 44716U 19074D   23014.19060816  .00006477  00000-0  45323-3 0  9998
2 44716  53.0523 311.4141 0001539  96.2705 263.8460 15.06406781175497
1 44716U 19074D   23014.52234611  .00009004  00000-0  62251-3 0  9999
2 44716  53.0537 309.9250 0001697  87.3593 272.7590 15.06402915175540
1 44716U 19074D   23015.45119510  .00005358  00000-0  37820-3 0  9994
2 44716  53.0526 305.7548 0002036  82.8815 277.2405 15.06410508175516
1 44716U 19074D   23015.45119510  .00005358  00000-0  37820-3 0  9994
2 44716  53.0526 305.7548 0002036  82.8815 277.2405 15.06410508175684
1 44716U 19074D   23016.11465360  .00007404  00000-0  51502-3 0  9992
2 44716  53.0537 302.7767 0001379  92.6049 267.5097 15.06427700175617
1 44716U 19074D   23016.77813904 -.00002602  00000-0 -15586-3 0  9994
2 44716  53.0539 299.7979 0001684  83.1033 277.0147 15.06388422175716
1 44716U 19074D   23016.77813904 -.00002602  00000-0 -15586-3 0  9994
2 44716  53.0539 299.7979 0001684  83.1033 277.0147 15.06388422175884
1 44716U 19074D   23017.50796187  .00000910  00000-0  79984-4 0  9990
2 44716  53.0544 296.5213 0001558  80.5427 279.5738 15.06388899175829
1 44716U 19074D   23017.90604181  .00003721  00000-0  26860-3 0  9993
2 44716  53.0534 294.7341 0001275  77.6193 282.4938 15.06397086175882
1 44716U 19074D   23017.90604181  .00003721  00000-0  26860-3 0  9993
2 44716  53.0534 294.7341 0001275  77.6193 282.4938 15.06397086176052
1 44716U 19074D   23018.23777278  .00027104  00000-0  18299-2 0  9995
2 44716  53.0537 293.2449 0001358  73.7043 286.4095 15.06432065176102
1 44716U 19074D   23018.90123776  .00015224  00000-0  10380-2 0  9990
2 44716  53.0537 290.2670 0001204  89.5418 270.5709 15.06426272176037
1 44716U 19074D   23018.90123776  .00015224  00000-0  10380-2 0  9990
2 44716  53.0537 290.2670 0001204  89.5418 270.5709 15.06426272176206
1 44716U 19074D   23019.56470834  .00032958  00000-0  22213-2 0  9994
2 44716  53.0536 287.2888 0001016 107.2431 252.8669 15.06397414176131
1 44716U 19074D   23019.76375432  .00019327  00000-0  13136-2 0  9993
2 44716  53.0537 286.3948 0000592  51.6311 308.4731 15.06377735176330
1 44716U 19074D   23019.89644649  .00021910  00000-0  14855-2 0  9996
2 44716  53.0535 285.7998 0001015  86.6483 273.4622 15.06392882176357
1 44716U 19074D   23020.42722542  .00027074  00000-0  18294-2 0  9994
2 44716  53.0535 283.4169 0001023 102.3160 257.7943 15.06401915176268
1 44716U 19074D   23020.42722542  .00027074  00000-0  18294-2 0  9994
2 44716  53.0535 283.4169 0001023 102.3160 257.7943 15.06401915176437
1 44716U 19074D   23020.75896158  .00011507  00000-0  79019-3 0  9992
2 44716  53.0526 281.9282 0001057  98.6525 261.4584 15.06395623176481
1 44716U 19074D   23021.09069124  .00014770  00000-0  10080-2 0  9992
2 44716  53.0525 280.4389 0001131 110.1026 250.0085 15.06413687176538
1 44716U 19074D   23021.42242778  .00006216  00000-0  43580-3 0  9995
2 44716  53.0527 278.9501 0001156  98.2076 261.9044 15.06402415176584
1 44716U 19074D   23022.41762945  .00004773  00000-0  33909-3 0  9998
2 44716  53.0508 274.4794 0001019  89.4596 270.6510 15.06401442176736
1 44716U 19074D   23023.08110319  .00000708  00000-0  66455-4 0  9991
2 44716  53.0513 271.5008 0001240  91.9225 268.1906 15.06395289176834
1 44716U 19074D   23023.94360533  .00004186  00000-0  29963-3 0  9997
2 44716  53.0523 267.6297 0001183  87.3758 272.7366 15.06412935176960
1 44716U 19074D   23024.80611651  .00002270  00000-0  17120-3 0  9997
2 44716  53.0515 263.7582 0001195  84.2644 275.8481 15.06401823177099
1 44716U 19074D   23025.46958484 -.00000113  00000-0  11276-4 0  9990
2 44716  53.0519 260.7820 0001174  65.4724 294.6388 15.06398139177025
1 44716U 19074D   23025.80132059 -.00000168  00000-0  76035-5 0  9995
2 44716  53.0521 259.2921 0001109  72.5723 287.5387 15.06396642177071
1 44716U 19074D   23025.80132059 -.00000168  00000-0  76035-5 0  9995
2 44716  53.0521 259.2921 0001109  72.5723 287.5387 15.06396642177240
1 44716U 19074D   23025.93401205  .00000311  00000-0  39754-4 0  9996
2 44716  53.0518 258.6949 0001072  88.3619 271.7493 15.06399386177091
1 44716U 19074D   23026.92921368 -.00002185  00000-0 -12787-3 0  9992
2 44716  53.0516 254.2269 0001078  85.1139 274.9973 15.06400999177411
1 44716U 19074D   23027.32730067  .00001525  00000-0  12124-3 0  9991
2 44716  53.0525 252.4395 0001143  87.8519 272.2601 15.06394589177309
1 44716U 19074D   23027.32730067  .00001525  00000-0  12124-3 0  9991
2 44716  53.0525 252.4395 0001143  87.8519 272.2601 15.06394589177477
1 44716U 19074D   23027.85807965  .00001275  00000-0  10451-3 0  9994
2 44716  53.0523 250.0568 0001151  90.2123 269.8997 15.06392376177381
1 44716U 19074D   23028.38885075  .00001464  00000-0  11715-3 0  9995
2 44716  53.0522 247.6739 0001176  91.0830 269.0293 15.06397394177637
1 44716U 19074D   23028.58789195  .00001085  00000-0  91744-4 0  9993
2 44716  53.0521 246.7801 0001161  93.4081 266.7041 15.06397516177499
1 44716U 19074D   23028.85327725  .00001319  00000-0  10741-3 0  9997
2 44716  53.0521 245.5889 0001203  89.0061 271.1066 15.06400359177530
1 44716U 19074D   23029.71578827  .00001792  00000-0  13921-3 0  9992
2 44716  53.0498 241.7186 0001630  82.8993 277.2181 15.06395243177833
1 44716U 19074D   23029.84846226  .00004085  00000-0  29285-3 0  9995
2 44716  53.0522 241.1214 0000922  95.4973 264.6122 15.06418157177686
1 44716U 19074D   23029.84846226  .00004085  00000-0  29285-3 0  9995
2 44716  53.0522 241.1214 0000922  95.4973 264.6122 15.06418157177855
